OBJECT_NAME,OBJECT_ID,EPOCH,MEAN_MOTION,ECCENTRICITY,INCLINATION,RA_OF_ASC_NODE,ARG_OF_PERICENTER,MEAN_ANOMALY,EPHEMERIS_TYPE,CLASSIFICATION_TYPE,NORAD_CAT_ID,ELEMENT_SET_NO,REV_AT_EPOCH,BSTAR,MEAN_MOTION_DOT,MEAN_MOTION_DDOT
INTELSAT 23 (IS-23),2012-057A,2026-07-13T07:35:38.606784,1.00274015,.00003199,0.0135,19.9646,172.9508,159.1922,0,U,38867,999,5021,0,-.288E-5,0
FM-6,2013-058A,2026-07-12T14:40:07.754304,1.00266064,.0001048,0.0177,43.8724,136.9706,213.3301,0,U,39360,999,4632,0,-.14E-6,0
INTELSAT 30 (IS-30),2014-062A,2026-07-12T19:54:01.234080,1.00273200,.00011997,0.0165,46.9734,336.3929,110.8103,0,U,40271,999,705,0,-.152E-5,0
DIRECTV 14,2014-078B,2026-07-13T04:26:13.159392,1.00270023,.00002541,0.0147,48.5403,253.7402,316.0900,0,U,40333,999,4230,0,-.127E-5,0
DIRECTV 15,2015-026A,2026-07-12T14:43:59.882592,1.00272075,.00000986,0.0184,70.9457,201.8573,135.8290,0,U,40663,999,4071,0,-.102E-5,0
SKY MEXICO-1,2015-026B,2026-07-13T07:51:38.508192,1.00270516,.00023324,0.0163,21.9998,113.5664,194.7487,0,U,40664,999,4071,0,-.237E-5,0
INTELSAT 34 (IS-34),2015-039A,2026-07-13T02:29:54.049920,1.00271511,.0000492,0.0107,1.3438,353.9217,277.7081,0,U,40874,999,3989,0,-.287E-5,0
INTELSAT 31 (IS-31),2016-035A,2026-07-13T04:27:28.038816,1.00271434,.00011386,0.0160,289.2103,354.6494,339.0259,0,U,41581,999,3694,0,-.153E-5,0
INTELSAT 36 (IS-36),2016-053A,2026-07-13T04:37:21.681120,1.00270041,.00025093,0.0101,19.2212,321.3392,88.3368,0,U,41747,999,3621,0,-.26E-6,0
INTELSAT 32E (IS-32E),2017-007B,2026-07-13T02:59:34.700352,1.00269412,.00004255,0.0250,44.8942,284.8742,322.9651,0,U,41945,999,3448,0,0,0
INTELSAT 35E (IS-35E),2017-041A,2026-07-12T21:54:05.343840,1.00269769,.00015813,0.0167,45.3733,65.1012,114.3450,0,U,42818,999,3307,0,-.239E-5,0
INTELSAT 37E (IS-37E),2017-059A,2026-07-13T00:48:38.471040,1.00270449,.00024848,0.0156,71.5028,47.5543,166.0149,0,U,42950,999,3232,0,-.143E-5,0
AZERSPACE 2 (IS-38),2018-074A,2026-07-13T05:07:22.899936,1.00269706,.00012157,0.0255,43.1522,78.6553,291.2528,0,U,43632,999,2870,0,0,0
HORIZONS-3E,2018-074B,2026-07-13T02:17:16.010880,1.00269520,.00009759,0.0482,223.1894,65.1377,205.9637,0,U,43633,999,2860,0,-.33E-6,0
AT&T T-16,2019-034A,2026-07-13T04:25:50.695392,1.00269295,.00006776,0.0150,54.0006,266.6085,296.0604,0,U,44333,999,2589,0,-.117E-5,0
INTELSAT 39 (IS-39),2019-049B,2026-07-13T05:12:14.932800,1.00269557,.00009428,0.0265,47.3312,280.2258,103.5572,0,U,44476,999,2538,0,0,0
GALAXY 30 (G-30),2020-056C,2026-07-13T05:39:38.740320,1.00271193,.00019536,0.0181,35.4758,79.1056,136.4367,0,U,46114,999,2155,0,.34E-6,0
GALAXY 33 (G-33),2022-128A,2026-07-13T06:37:12.796320,1.00271487,.00017585,0.0139,20.7800,99.2510,137.4242,0,U,54026,999,1400,0,.76E-6,0
GALAXY 34 (G-34),2022-128B,2026-07-12T23:09:49.994208,1.00273632,.00014531,0.0243,20.8122,119.7956,8.7058,0,U,54027,999,1417,0,0,0
GALAXY 31 (G-31),2022-153A,2026-07-13T06:02:45.468096,1.00270644,.00009507,0.0182,65.6448,53.7149,141.4445,0,U,54243,999,739,0,.11E-6,0
GALAXY 32 (G-32),2022-153B,2026-07-13T02:45:56.155392,1.00270119,.00014548,0.0124,24.1776,22.4936,194.8053,0,U,54244,999,1340,0,-.176E-5,0
GALAXY 35 (G-35),2022-170A,2026-07-13T08:02:51.090720,1.00268735,.00019042,0.0244,63.0238,53.9930,201.8076,0,U,54741,999,1315,0,0,0
GALAXY 36 (G-36),2022-170B,2026-07-12T19:55:46.066656,1.00270917,.00023414,0.0298,108.9509,351.1655,40.5435,0,U,54742,999,1303,0,-.186E-5,0
GALAXY 37 (G-37),2023-112A,2026-07-13T05:47:14.686080,1.00271113,.00017423,0.0200,71.4722,45.6328,133.8199,0,U,57493,999,1080,0,.46E-6,0
